{"type": "FeatureCollection", "features": [ {"type": "Feature", "properties": {"norad_id": 28649, "name": "IRS-P5 (CARTOSAT-1)", "group": "resource", "lat": 75.77824627227504, "lon": -7.399803487465254, "alt_km": 589.0198193202605, "timestamp": "2025-12-24T05:51:19.262144+00:00", "meta": {"OBJECT_NAME": "IRS-P5 (CARTOSAT-1)", "OBJECT_ID": "2005-017A", "EPOCH": "2025-12-23T23:03:43.412832", "MEAN_MOTION": 14.9044043, "ECCENTRICITY": 5.641e-05, "INCLINATION": 97.5482, "RA_OF_ASC_NODE": 23.8761, "ARG_OF_PERICENTER": 59.0695, "MEAN_ANOMALY": 301.0579, "EPHEMERIS_TYPE": 0, "CLASSIFICATION_TYPE": "U", "NORAD_CAT_ID": 28649, "ELEMENT_SET_NO": 999, "REV_AT_EPOCH": 11771, "BSTAR": 0.00016789118, "MEAN_MOTION_DOT": 1.584e-05, "MEAN_MOTION_DDOT": 0}, "tle": {"line1": "1 28649U 05017A   25357.96091913  .00001584  00000+0  16789-3 0  9993", "line2": "2 28649  97.5482  23.8761 0000564  59.0695 301.0579 14.90440430117713"}}, "geometry": {"type": "Point", "coordinates": [-7.399803487465254, 75.77824627227504]}}, {"type": "Feature", "properties": {"norad_id": 28893, "name": "SINAH 1", "group": "resource", "lat": 56.79099461164455, "lon": 114.0092973226499, "alt_km": 667.1515048915908, "timestamp": "2025-12-24T05:51:19.262155+00:00", "meta": {"OBJECT_NAME": "SINAH 1", "OBJECT_ID": "2005-043D", "EPOCH": "2025-12-23T23:01:53.175072", "MEAN_MOTION": 14.63973727, "ECCENTRICITY": 0.0015713, "INCLINATION": 98.2609, "RA_OF_ASC_NODE": 126.5473, "ARG_OF_PERICENTER": 104.2831, "MEAN_ANOMALY": 256.0117, "EPHEMERIS_TYPE": 0, "CLASSIFICATION_TYPE": "U", "NORAD_CAT_ID": 28893, "ELEMENT_SET_NO": 999, "REV_AT_EPOCH": 7488, "BSTAR": 9.0392145e-05, "MEAN_MOTION_DOT": 4.25e-06, "MEAN_MOTION_DDOT": 0}, "tle": {"line1": "1 28893U 05043D   25357.95964323  .00000425  00000+0  90392-4 0  9992", "line2": "2 28893  98.2609 126.5473 0015713 104.2831 256.0117 14.63973727 74888"}}, "geometry": {"type": "Point", "coordinates": [114.0092973226499, 56.79099461164455]}}, {"type": "Feature", "properties": {"norad_id": 29079, "name": "EROS B", "group": "resource", "lat": 45.15288641327163, "lon": -57.15153244301328, "alt_km": 352.3037326694048, "timestamp": "2025-12-24T05:51:19.262166+00:00", "meta": {"OBJECT_NAME": "EROS B", "OBJECT_ID": "2006-014A", "EPOCH": "2025-12-23T23:10:28.226208", "MEAN_MOTION": 15.71861108, "ECCENTRICITY": 0.00041323, "INCLINATION": 97.3459, "RA_OF_ASC_NODE": 115.103, "ARG_OF_PERICENTER": 310.9038, "MEAN_ANOMALY": 49.1867, "EPHEMERIS_TYPE": 0, "CLASSIFICATION_TYPE": "U", "NORAD_CAT_ID": 29079, "ELEMENT_SET_NO": 999, "REV_AT_EPOCH": 9256, "BSTAR": 0.001389713, "MEAN_MOTION_DOT": 0.00183766, "MEAN_MOTION_DDOT": 0}, "tle": {"line1": "1 29079U 06014A   25357.96560447  .00183766  00000+0  13897-2 0  9991", "line2": "2 29079  97.3459 115.1030 0004132 310.9038  49.1867 15.71861108 92566"}}, "geometry": {"type": "Point", "coordinates": [-57.15153244301328, 45.15288641327163]}}, {"type": "Feature", "properties": {"norad_id": 29228, "name": "RESURS-DK 1", "group": "resource", "lat": -15.690973362238042, "lon": -101.99885723403429, "alt_km": 530.7026722348046, "timestamp": "2025-12-24T05:51:19.262177+00:00", "meta": {"OBJECT_NAME": "RESURS-DK 1", "OBJECT_ID": "2006-021A", "EPOCH": "2025-12-23T14:42:01.773792", "MEAN_MOTION": 15.122178, "ECCENTRICITY": 0.00068724, "INCLINATION": 69.9337, "RA_OF_ASC_NODE": 73.7385, "ARG_OF_PERICENTER": 249.2294, "MEAN_ANOMALY": 110.8136, "EPHEMERIS_TYPE": 0, "CLASSIFICATION_TYPE": "U", "NORAD_CAT_ID": 29228, "ELEMENT_SET_NO": 999, "REV_AT_EPOCH": 7602, "BSTAR": 0.00016371419, "MEAN_MOTION_DOT": 2.729e-05, "MEAN_MOTION_DDOT": 0}, "tle": {"line1": "1 29228U 06021A   25357.61252053  .00002729  00000+0  16371-3 0  9998", "line2": "2 29228  69.9337  73.7385 0006872 249.2294 110.8136 15.12217800 76022"}}, "geometry": {"type": "Point", "coordinates": [-101.99885723403429, -15.690973362238042]}}, {"type": "Feature", "properties": {"norad_id": 29268, "name": "ARIRANG-2 (KOMPSAT-2)", "group": "resource", "lat": -14.93961228269753, "lon": -171.74120110625378, "alt_km": 681.0266904766249, "timestamp": "2025-12-24T05:51:19.262187+00:00", "meta": {"OBJECT_NAME": "ARIRANG-2 (KOMPSAT-2)", "OBJECT_ID": "2006-031A", "EPOCH": "2025-12-24T00:03:45.426240", "MEAN_MOTION": 14.64504345, "ECCENTRICITY": 0.0013127, "INCLINATION": 97.8254, "RA_OF_ASC_NODE": 185.9264, "ARG_OF_PERICENTER": 270.5086, "MEAN_ANOMALY": 242.625, "EPHEMERIS_TYPE": 0, "CLASSIFICATION_TYPE": "U", "NORAD_CAT_ID": 29268, "ELEMENT_SET_NO": 999, "REV_AT_EPOCH": 3583, "BSTAR": 0.00014689958, "MEAN_MOTION_DOT": 7.34e-06, "MEAN_MOTION_DDOT": 0}, "tle": {"line1": "1 29268U 06031A   25358.00260910  .00000734  00000+0  14690-3 0  9994", "line2": "2 29268  97.8254 185.9264 0013127 270.5086 242.6250 14.64504345 35837"}}, "geometry": {"type": "Point", "coordinates": [-171.74120110625378, -14.93961228269753]}}, {"type": "Feature", "properties": {"norad_id": 29709, "name": "LAPAN-TUBSAT", "group": "resource", "lat": 73.66536832021812, "lon": -40.54111164743103, "alt_km": 596.8332240826348, "timestamp": "2025-12-24T05:51:19.262198+00:00", "meta": {"OBJECT_NAME": "LAPAN-TUBSAT", "OBJECT_ID": "2007-001A", "EPOCH": "2025-12-23T23:03:02.733984", "MEAN_MOTION": 14.856874, "ECCENTRICITY": 0.00132943, "INCLINATION": 98.1261, "RA_OF_ASC_NODE": 348.3476, "ARG_OF_PERICENTER": 40.9181, "MEAN_ANOMALY": 319.3029, "EPHEMERIS_TYPE": 0, "CLASSIFICATION_TYPE": "U", "NORAD_CAT_ID": 29709, "ELEMENT_SET_NO": 999, "REV_AT_EPOCH": 2513, "BSTAR": 7.3886716e-05, "MEAN_MOTION_DOT": 5.84e-06, "MEAN_MOTION_DDOT": 0}, "tle": {"line1": "1 29709U 07001A   25357.96044831  .00000584  00000+0  73887-4 0  9995", "line2": "2 29709  98.1261 348.3476 0013294  40.9181 319.3029 14.85687400 25134"}}, "geometry": {"type": "Point", "coordinates": [-40.54111164743103, 73.66536832021812]}}, {"type": "Feature", "properties": {"norad_id": 31113, "name": "HAIYANG-1B", "group": "resource", "lat": -37.872554582668016, "lon": 155.5024753562794, "alt_km": 803.0730040629587, "timestamp": "2025-12-24T05:51:19.262208+00:00", "meta": {"OBJECT_NAME": "HAIYANG-1B", "OBJECT_ID": "2007-010A", "EPOCH": "2025-12-23T22:07:32.109888", "MEAN_MOTION": 14.3096859, "ECCENTRICITY": 0.00136744, "INCLINATION": 98.3327, "RA_OF_ASC_NODE": 341.7386, "ARG_OF_PERICENTER": 6.0187, "MEAN_ANOMALY": 354.1158, "EPHEMERIS_TYPE": 0, "CLASSIFICATION_TYPE": "U", "NORAD_CAT_ID": 31113, "ELEMENT_SET_NO": 999, "REV_AT_EPOCH": 97556, "BSTAR": 5.6728947e-05, "MEAN_MOTION_DOT": 1.08e-06, "MEAN_MOTION_DDOT": 0}, "tle": {"line1": "1 31113U 07010A   25357.92189942  .00000108  00000+0  56729-4 0  9994", "line2": "2 31113  98.3327 341.7386 0013674   6.0187 354.1158 14.30968590975562"}}, "geometry": {"type": "Point", "coordinates": [155.5024753562794, -37.872554582668016]}}, {"type": "Feature", "properties": {"norad_id": 31598, "name": "COSMO-SKYMED 1", "group": "resource", "lat": 82.09793209693918, "lon": 90.44298011222851, "alt_km": 571.3403960514906, "timestamp": "2025-12-24T05:51:19.262219+00:00", "meta": {"OBJECT_NAME": "COSMO-SKYMED 1", "OBJECT_ID": "2007-023A", "EPOCH": "2025-12-23T23:01:51.186144", "MEAN_MOTION": 14.95847218, "ECCENTRICITY": 0.00013716, "INCLINATION": 97.884, "RA_OF_ASC_NODE": 183.433, "ARG_OF_PERICENTER": 78.6345, "MEAN_ANOMALY": 281.5029, "EPHEMERIS_TYPE": 0, "CLASSIFICATION_TYPE": "U", "NORAD_CAT_ID": 31598, "ELEMENT_SET_NO": 999, "REV_AT_EPOCH": 358, "BSTAR": 0.00030003156, "MEAN_MOTION_DOT": 3.293e-05, "MEAN_MOTION_DDOT": 0}, "tle": {"line1": "1 31598U 07023A   25357.95962021  .00003293  00000+0  30003-3 0  9999", "line2": "2 31598  97.8840 183.4330 0001371  78.6345 281.5029 14.95847218  3583"}}, "geometry": {"type": "Point", "coordinates": [90.44298011222851, 82.09793209693918]}}, {"type": "Feature", "properties": {"norad_id": 31698, "name": "TERRASAR-X", "group": "resource", "lat": -8.843509431017383, "lon": 4.621701821318631, "alt_km": 512.5213948162409, "timestamp": "2025-12-24T05:51:19.262230+00:00", "meta": {"OBJECT_NAME": "TERRASAR-X", "OBJECT_ID": "2007-026A", "EPOCH": "2025-12-23T12:30:19.023264", "MEAN_MOTION": 15.19149386, "ECCENTRICITY": 0.00017705, "INCLINATION": 97.4442, "RA_OF_ASC_NODE": 2.7437, "ARG_OF_PERICENTER": 81.4954, "MEAN_ANOMALY": 278.6481, "EPHEMERIS_TYPE": 0, "CLASSIFICATION_TYPE": "U", "NORAD_CAT_ID": 31698, "ELEMENT_SET_NO": 999, "REV_AT_EPOCH": 2655, "BSTAR": 4.2968524e-05, "MEAN_MOTION_DOT": 8.35e-06, "MEAN_MOTION_DDOT": 0}, "tle": {"line1": "1 31698U 07026A   25357.52105351  .00000835  00000+0  42969-4 0  9995", "line2": "2 31698  97.4442   2.7437 0001770  81.4954 278.6481 15.19149386 26559"}}, "geometry": {"type": "Point", "coordinates": [4.621701821318631, -8.843509431017383]}}, {"type": "Feature", "properties": {"norad_id": 32060, "name": "WORLDVIEW-1 (WV-1)", "group": "resource", "lat": -30.045405818626563, "lon": -68.74366502528903, "alt_km": 501.93446658823086, "timestamp": "2025-12-24T05:51:19.262241+00:00", "meta": {"OBJECT_NAME": "WORLDVIEW-1 (WV-1)", "OBJECT_ID": "2007-041A", "EPOCH": "2025-12-23T21:03:22.377312", "MEAN_MOTION": 15.2393267, "ECCENTRICITY": 0.00032884, "INCLINATION": 97.3828, "RA_OF_ASC_NODE": 115.1965, "ARG_OF_PERICENTER": 359.6506, "MEAN_ANOMALY": 0.4728, "EPHEMERIS_TYPE": 0, "CLASSIFICATION_TYPE": "U", "NORAD_CAT_ID": 32060, "ELEMENT_SET_NO": 999, "REV_AT_EPOCH": 1617, "BSTAR": 0.00035081259, "MEAN_MOTION_DOT": 8.413e-05, "MEAN_MOTION_DDOT": 0}, "tle": {"line1": "1 32060U 07041A   25357.87734233  .00008413  00000+0  35081-3 0  9997", "line2": "2 32060  97.3828 115.1965 0003288 359.6506   0.4728 15.23932670 16177"}}, "geometry": {"type": "Point", "coordinates": [-68.74366502528903, -30.045405818626563]}}]}